NORAD_CAT_ID,OBJECT_NAME,OBJECT_TYPE,EPOCH,MEAN_MOTION,ECCENTRICITY,INCLINATION,RA_OF_ASC_NODE,ARG_OF_PERICENTER,MEAN_ANOMALY,BSTAR,MEAN_MOTION_DOT,MEAN_MOTION_DDOT,TLE_LINE0,TLE_LINE1,TLE_LINE2,SEMIMAJOR_AXIS,PERIOD,APOGEE,PERIGEE,DECAYED
51986.0,STARLINK-3645,PAYLOAD,2023-02-05 18:20:12,15.08837446,0.0001298,53.2154,62.5857,97.7406,262.3733,4.6673e-05,4.55e-06,0.0,0 STARLINK-3645,1 51986U 22025AG  23036.76403088  .00000455  00000-0  46673-4 0  9994,2 51986  53.2154  62.5857 0001298  97.7406 262.3733 15.08837446 50789,6917.888,95.438,540.651,538.855,0.0
51986.0,STARLINK-3645,PAYLOAD,2023-02-06 10:14:03,15.08845875,0.0001418,53.2163,59.6123,103.5651,256.5499,0.00010844,1.439e-05,0.0,0 STARLINK-3645,1 51986U 22025AG  23037.42642514  .00001439  00000-0  10844-3 0  9990,2 51986  53.2163  59.6123 0001418 103.5651 256.5499 15.08845875 51975,6917.862,95.437,540.708,538.746,0.0
51986.0,STARLINK-3645,PAYLOAD,2023-02-06 18:10:59,15.08838541,0.0001423,53.216,58.1246,95.4631,264.6523,9.0415e-05,1.151e-05,0.0,0 STARLINK-3645,1 51986U 22025AG  23037.75763101  .00001151  00000-0  90415-4 0  9996,2 51986  53.2160  58.1246 0001423  95.4631 264.6523 15.08838541 52022,6917.885,95.438,540.734,538.765,0.0
51986.0,STARLINK-3645,PAYLOAD,2023-02-07 08:29:26,15.08852986,0.0001255,53.2159,55.4477,95.6716,264.4419,0.0002193,3.205e-05,0.0,0 STARLINK-3645,1 51986U 22025AG  23038.35377923  .00003205  00000-0  21930-3 0  9993,2 51986  53.2159  55.4477 0001255  95.6716 264.4419 15.08852986 52116,6917.841,95.437,540.574,538.838,0.0
51986.0,STARLINK-3645,PAYLOAD,2023-02-08 03:34:04,15.08842249,0.0001365,53.2159,51.8809,92.9193,267.1956,5.6695e-05,6.15e-06,0.0,0 STARLINK-3645,1 51986U 22025AG  23039.14866630  .00000615  00000-0  56695-4 0  9998,2 51986  53.2159  51.8809 0001365  92.9193 267.1956 15.08842249 52236,6917.874,95.437,540.683,538.794,0.0
51986.0,STARLINK-3645,PAYLOAD,2023-02-08 09:55:36,15.08852962,0.0001401,53.2142,50.6891,94.4685,265.6468,0.00018211,2.613e-05,0.0,0 STARLINK-3645,1 51986U 22025AG  23039.41362042  .00002613  00000-0  18211-3 0  9997,2 51986  53.2142  50.6891 0001401  94.4685 265.6468 15.08852962 52278,6917.841,95.437,540.675,538.737,0.0
51986.0,STARLINK-3645,PAYLOAD,2023-02-09 09:46:24,15.08851356,0.0001356,53.214,46.2285,99.5467,260.5679,0.00051663,7.946e-05,0.0,0 STARLINK-3645,1 51986U 22025AG  23040.40722437  .00007946  00000-0  51663-3 0  9998,2 51986  53.2140  46.2285 0001356  99.5467 260.5679 15.08851356 51337,6917.846,95.437,540.649,538.773,0.0
51986.0,STARLINK-3645,PAYLOAD,2023-02-09 17:43:20,15.08827858,0.0001695,53.2144,44.7422,85.1563,274.9623,0.00031514,4.729e-05,0.0,0 STARLINK-3645,1 51986U 22025AG  23040.73843546  .00004729  00000-0  31514-3 0  9998,2 51986  53.2144  44.7422 0001695  85.1563 274.9623 15.08827858 52475,6917.918,95.438,540.955,538.61,0.0
51986.0,STARLINK-3645,PAYLOAD,2023-02-10 03:15:39,15.08834985,0.0001293,53.2144,42.9577,85.8737,274.2403,0.0010056,0.0001575,0.0,0 STARLINK-3645,1 51986U 22025AG  23041.13587585  .00015750  00000-0  10056-2 0  9994,2 51986  53.2144  42.9577 0001293  85.8737 274.2403 15.08834985 51444,6917.896,95.438,540.655,538.866,0.0
51986.0,STARLINK-3645,PAYLOAD,2023-02-10 11:12:35,15.0887267,0.0001399,53.2145,41.4717,86.0221,274.0931,0.0028295,0.00045072,0.0,0 STARLINK-3645,1 51986U 22025AG  23041.46707204  .00045072  00000-0  28295-2 0  9996,2 51986  53.2145  41.4717 0001399  86.0221 274.0931 15.08872670 52586,6917.781,95.435,540.613,538.678,0.0
51986.0,STARLINK-3645,PAYLOAD,2023-02-11 06:17:12,15.08878073,0.0001424,53.2147,37.9023,93.6768,266.4387,0.0025329,0.00040296,0.0,0 STARLINK-3645,1 51986U 22025AG  23042.26194922  .00040296  00000-0  25329-2 0  9990,2 51986  53.2147  37.9023 0001424  93.6768 266.4387 15.08878073 51613,6917.764,95.435,540.614,538.644,0.0
51986.0,STARLINK-3645,PAYLOAD,2023-02-12 06:07:59,15.08878866,0.0001452,53.2153,33.442,81.6638,278.4519,0.0026598,0.00042343,0.0,0 STARLINK-3645,1 51986U 22025AG  23043.25555146  .00042343  00000-0  26598-2 0  9993,2 51986  53.2153  33.4420 0001452  81.6638 278.4519 15.08878866 52853,6917.762,95.435,540.631,538.622,0.0
51986.0,STARLINK-3645,PAYLOAD,2023-02-12 15:40:18,15.08840851,0.0001359,53.2157,31.6576,73.9886,286.1256,0.0014062,0.00022163,0.0,0 STARLINK-3645,1 51986U 22025AG  23043.65299426  .00022163  00000-0  14062-2 0  9994,2 51986  53.2157  31.6576 0001359  73.9886 286.1256 15.08840851 52918,6917.878,95.438,540.683,538.803,0.0
51986.0,STARLINK-3645,PAYLOAD,2023-02-13 01:12:37,15.08840282,0.000188,53.2161,29.8769,95.7394,264.3812,0.0013944,0.00021974,0.0,0 STARLINK-3645,1 51986U 22025AG  23044.05043818  .00021974  00000-0  13944-2 0  9998,2 51986  53.2161  29.8769 0001880  95.7394 264.3812 15.08840282 52971,6917.88,95.438,541.045,538.444,0.0
51986.0,STARLINK-3645,PAYLOAD,2023-02-13 09:09:33,15.08845607,0.0001705,53.2166,28.39,101.7234,258.3949,0.0010888,0.00017085,0.0,0 STARLINK-3645,1 51986U 22025AG  23044.38163687  .00017085  00000-0  10888-2 0  9993,2 51986  53.2166  28.3900 0001705 101.7234 258.3949 15.08845607 51939,6917.863,95.437,540.908,538.549,0.0
51986.0,STARLINK-3645,PAYLOAD,2023-02-13 15:31:06,15.08839732,0.0001658,53.2159,27.1948,85.9476,274.1705,0.00046638,7.142e-05,0.0,0 STARLINK-3645,1 51986U 22025AG  23044.64659744  .00007142  00000-0  46638-3 0  9992,2 51986  53.2159  27.1948 0001658  85.9476 274.1705 15.08839732 53062,6917.881,95.438,540.893,538.599,0.0
51986.0,STARLINK-3645,PAYLOAD,2023-02-14 09:00:20,15.08838517,0.0001162,53.2154,23.9238,72.7061,287.4058,0.00020541,2.983e-05,0.0,0 STARLINK-3645,1 51986U 22025AG  23045.37523758  .00002983  00000-0  20541-3 0  9991,2 51986  53.2154  23.9238 0001162  72.7061 287.4058 15.08838517 53177,6917.885,95.438,540.554,538.946,0.0
51986.0,STARLINK-3645,PAYLOAD,2023-02-14 15:21:53,15.08832079,0.0001037,53.2155,22.7371,96.9342,263.1768,-1.1546e-05,-4.71e-06,0.0,0 STARLINK-3645,1 51986U 22025AG  23045.64020108 -.00000471  00000-0 -11546-4 0  9990,2 51986  53.2155  22.7371 0001037  96.9342 263.1768 15.08832079 53215,6917.905,95.438,540.487,539.052,0.0
51986.0,STARLINK-3645,PAYLOAD,2023-02-15 04:04:58,15.08843522,9.73e-05,53.2142,20.3585,101.984,258.1261,0.0002353,3.459e-05,0.0,0 STARLINK-3645,1 51986U 22025AG  23046.17011895  .00003459  00000-0  23530-3 0  9994,2 51986  53.2142  20.3585 0000973 101.9840 258.1261 15.08843522 53295,6917.87,95.437,540.408,539.062,0.0
51986.0,STARLINK-3645,PAYLOAD,2023-02-15 10:26:30,15.08857054,0.0001166,53.2145,19.1692,99.5087,260.6037,0.00073724,0.0001147,0.0,0 STARLINK-3645,1 51986U 22025AG  23046.43507645  .00011470  00000-0  73724-3 0  9998,2 51986  53.2145  19.1692 0001166  99.5087 260.6037 15.08857054 52241,6917.828,95.436,540.5,538.887,0.0
51986.0,STARLINK-3645,PAYLOAD,2023-02-15 15:12:39,15.08858889,0.0001045,53.2149,18.2763,83.4309,276.6802,0.0009902,0.00015514,0.0,0 STARLINK-3645,1 51986U 22025AG  23046.63379588  .00015514  00000-0  99020-3 0  9993,2 51986  53.2149  18.2763 0001045  83.4309 276.6802 15.08858889 53367,6917.823,95.436,540.411,538.965,0.0
51986.0,STARLINK-3645,PAYLOAD,2023-02-16 02:20:21,15.08856035,0.0001438,53.2135,16.1969,82.3832,277.7324,0.0005427,8.363e-05,0.0,0 STARLINK-3645,1 51986U 22025AG  23047.09747373  .00008363  00000-0  54270-3 0  9997,2 51986  53.2135  16.1969 0001438  82.3832 277.7324 15.08856035 53432,6917.831,95.437,540.691,538.702,0.0
51986.0,STARLINK-3645,PAYLOAD,2023-02-16 07:06:30,15.08878521,0.0001045,53.2156,15.3021,120.5396,239.5699,0.0010525,0.0001652,0.0,0 STARLINK-3645,1 51986U 22025AG  23047.29618356  .00016520  00000-0  10525-2 0  9995,2 51986  53.2156  15.3021 0001045 120.5396 239.5699 15.08878521 53467,6917.763,95.435,540.351,538.905,0.0
51986.0,STARLINK-3645,PAYLOAD,2023-02-16 15:03:26,15.0884115,0.0001244,53.2151,13.8155,78.203,281.9101,-0.00011303,-2.086e-05,0.0,0 STARLINK-3645,1 51986U 22025AG  23047.62739321 -.00002086  00000-0 -11303-3 0  9998,2 51986  53.2151  13.8155 0001244  78.2030 281.9101 15.08841150 53511,6917.877,95.437,540.602,538.881,0.0
51986.0,STARLINK-3645,PAYLOAD,2023-02-17 03:46:32,15.08815571,0.0001771,53.2166,11.4312,94.1051,266.0143,-0.00036414,-6.075e-05,0.0,0 STARLINK-3645,1 51986U 22025AG  23048.15732305 -.00006075  00000-0 -36414-3 0  9994,2 51986  53.2166  11.4312 0001771  94.1051 266.0143 15.08815571 53597,6917.955,95.439,541.045,538.595,0.0
51986.0,STARLINK-3645,PAYLOAD,2023-02-18 00:26:34,15.08829201,0.0001608,53.2142,7.5728,79.7682,280.3491,0.00014894,2.082e-05,0.0,0 STARLINK-3645,1 51986U 22025AG  23049.01845259  .00002082  00000-0  14894-3 0  9993,2 51986  53.2142   7.5728 0001608  79.7682 280.3491 15.08829201 53721,6917.913,95.438,540.891,538.666,0.0
51986.0,STARLINK-3645,PAYLOAD,2023-02-18 03:37:20,15.08836316,0.0001588,53.2162,6.9745,98.0879,262.0294,0.00034589,5.221e-05,0.0,0 STARLINK-3645,1 51986U 22025AG  23049.15092978  .00005221  00000-0  34589-3 0  9991,2 51986  53.2162   6.9745 0001588  98.0879 262.0294 15.08836316 53749,6917.892,95.438,540.855,538.658,0.0
51986.0,STARLINK-3645,PAYLOAD,2023-02-19 08:14:16,15.08874577,0.0001547,53.2158,1.6233,97.7614,262.3554,0.0011387,0.00017898,0.0,0 STARLINK-3645,1 51986U 22025AG  23050.34324222  .00017898  00000-0  11387-2 0  9997,2 51986  53.2158   1.6233 0001547  97.7614 262.3554 15.08874577 53929,6917.775,95.435,540.71,538.57,0.0
51986.0,STARLINK-3645,PAYLOAD,2023-02-20 03:18:53,15.0885186,0.0001432,53.216,358.0559,89.6812,270.4345,0.00038186,5.797e-05,0.0,0 STARLINK-3645,1 51986U 22025AG  23051.13812416  .00005797  00000-0  38186-3 0  9994,2 51986  53.2160 358.0559 0001432  89.6812 270.4345 15.08851860 54047,6917.844,95.437,540.7,538.719,0.0
51986.0,STARLINK-3645,PAYLOAD,2023-02-20 12:51:12,15.08845575,0.0001433,53.2161,356.2713,88.7349,271.3807,0.00043646,6.666e-05,0.0,0 STARLINK-3645,1 51986U 22025AG  23051.53556505  .00006666  00000-0  43646-3 0  9995,2 51986  53.2161 356.2713 0001433  88.7349 271.3807 15.08845575 53011,6917.863,95.437,540.72,538.737,0.0
